NORAD_CAT_ID,OBJECT_NAME,OBJECT_TYPE,EPOCH,MEAN_MOTION,ECCENTRICITY,INCLINATION,RA_OF_ASC_NODE,ARG_OF_PERICENTER,MEAN_ANOMALY,BSTAR,MEAN_MOTION_DOT,MEAN_MOTION_DDOT,TLE_LINE0,TLE_LINE1,TLE_LINE2,SEMIMAJOR_AXIS,PERIOD,APOGEE,PERIGEE,DECAYED
53022.0,STARLINK-4216,PAYLOAD,2023-04-26 08:44:00,15.08846442,0.000204,53.2165,110.2344,53.7608,306.3573,0.00011227,1.499e-05,0.0,0 STARLINK-4216,1 53022U 22076AN  23116.36388907  .00001499  00000-0  11227-3 0  9995,2 53022  53.2165 110.2344 0002040  53.7608 306.3573 15.08846442 44722,6917.861,95.437,541.137,538.314,0.0
53022.0,STARLINK-4216,PAYLOAD,2023-04-26 16:40:55,15.08838956,5.75e-05,53.2165,108.7474,231.9932,128.1008,2.8151e-05,1.61e-06,0.0,0 STARLINK-4216,1 53022U 22076AN  23116.69508726  .00000161  00000-0  28151-4 0  9994,2 53022  53.2165 108.7474 0000575 231.9932 128.1008 15.08838956 44778,6917.884,95.438,540.146,539.351,0.0
53022.0,STARLINK-4216,PAYLOAD,2023-04-27 08:34:47,15.08841932,0.0001189,53.2163,105.7739,91.0376,269.0753,8.6724e-05,1.093e-05,0.0,0 STARLINK-4216,1 53022U 22076AN  23117.35749062  .00001093  00000-0  86724-4 0  9993,2 53022  53.2163 105.7739 0001189  91.0376 269.0753 15.08841932 44877,6917.874,95.437,540.562,538.917,0.0
53022.0,STARLINK-4216,PAYLOAD,2023-04-28 05:14:48,15.08837431,0.0001147,53.2162,101.9087,93.2974,266.8149,7.8125e-05,9.56e-06,0.0,0 STARLINK-4216,1 53022U 22076AN  23118.21861472  .00000956  00000-0  78125-4 0  9992,2 53022  53.2162 101.9087 0001147  93.2974 266.8149 15.08837431 45472,6917.888,95.438,540.547,538.96,0.0
53022.0,STARLINK-4216,PAYLOAD,2023-04-29 08:16:21,15.08842845,0.0001328,53.2164,96.8538,95.1187,264.9957,6.2237e-05,7.03e-06,0.0,0 STARLINK-4216,1 53022U 22076AN  23119.34469103  .00000703  00000-0  62237-4 0  9999,2 53022  53.2164  96.8538 0001328  95.1187 264.9957 15.08842845 45173,6917.872,95.437,540.655,538.818,0.0
53022.0,STARLINK-4216,PAYLOAD,2023-04-30 08:07:08,15.08841213,0.0001316,53.2162,92.3927,95.9121,264.2021,2.87e-05,1.69e-06,0.0,0 STARLINK-4216,1 53022U 22076AN  23120.33829232  .00000169  00000-0  28700-4 0  9996,2 53022  53.2162  92.3927 0001316  95.9121 264.2021 15.08841213 45327,6917.877,95.437,540.652,538.831,0.0
53022.0,STARLINK-4216,PAYLOAD,2023-05-01 04:47:10,15.08830382,0.0001437,53.2173,88.5259,100.1424,259.973,-7.522e-05,-1.485e-05,0.0,0 STARLINK-4216,1 53022U 22076AN  23121.19942573 -.00001485  00000-0 -75220-4 0  9998,2 53022  53.2173  88.5259 0001437 100.1424 259.9730 15.08830382 45922,6917.91,95.438,540.769,538.781,0.0
53022.0,STARLINK-4216,PAYLOAD,2023-05-01 22:16:24,15.08840112,0.0001624,53.2177,85.252,127.6101,232.5038,-3.2701e-05,-8.08e-06,0.0,0 STARLINK-4216,1 53022U 22076AN  23121.92805975 -.00000808  00000-0 -32701-4 0  9998,2 53022  53.2177  85.2520 0001624 127.6101 232.5038 15.08840112 46038,6917.88,95.438,540.869,538.622,0.0
53022.0,STARLINK-4216,PAYLOAD,2023-05-02 14:10:15,15.08837673,0.000141,53.2182,82.2806,95.3024,264.8129,7.3149e-05,8.76e-06,0.0,0 STARLINK-4216,1 53022U 22076AN  23122.59045933  .00000876  00000-0  73149-4 0  9996,2 53022  53.2182  82.2806 0001410  95.3024 264.8129 15.08837673 45661,6917.888,95.438,540.728,538.777,0.0
53022.0,STARLINK-4216,PAYLOAD,2023-05-02 20:31:48,15.0883192,0.0001296,53.2164,81.0938,91.7364,268.3777,7.5262e-05,9.1e-06,0.0,0 STARLINK-4216,1 53022U 22076AN  23122.85542374  .00000910  00000-0  75262-4 0  9993,2 53022  53.2164  81.0938 0001296  91.7364 268.3777 15.08831920 45705,6917.905,95.438,540.667,538.874,0.0
53022.0,STARLINK-4216,PAYLOAD,2023-05-03 04:28:44,15.08837196,0.000126,53.2173,79.607,95.6178,264.4958,7.6756e-05,9.34e-06,0.0,0 STARLINK-4216,1 53022U 22076AN  23123.18662127  .00000934  00000-0  76756-4 0  9994,2 53022  53.2173  79.6070 0001260  95.6178 264.4958 15.08837196 46229,6917.889,95.438,540.626,538.882,0.0
53022.0,STARLINK-4216,PAYLOAD,2023-05-03 06:04:07,15.08838309,0.0001349,53.217,79.3091,98.7733,261.3412,8.8648e-05,1.123e-05,0.0,0 STARLINK-4216,1 53022U 22076AN  23123.25286032  .00001123  00000-0  88648-4 0  9993,2 53022  53.2170  79.3091 0001349  98.7733 261.3412 15.08838309 45761,6917.886,95.438,540.684,538.817,0.0
53022.0,STARLINK-4216,PAYLOAD,2023-05-03 20:22:35,15.08841587,0.0001343,53.2172,76.6334,100.2692,259.8451,-6.1421e-05,-1.265e-05,0.0,0 STARLINK-4216,1 53022U 22076AN  23123.84902439 -.00001265  00000-0 -61421-4 0  9993,2 53022  53.2172  76.6334 0001343 100.2692 259.8451 15.08841587 45857,6917.876,95.437,540.67,538.811,0.0
53022.0,STARLINK-4216,PAYLOAD,2023-05-04 07:30:17,15.08843182,0.000125,53.2166,74.5512,95.1145,264.999,-3.2864e-05,-8.11e-06,0.0,0 STARLINK-4216,1 53022U 22076AN  23124.31270180 -.00000811  00000-0 -32864-4 0  9992,2 53022  53.2166  74.5512 0001250  95.1145 264.9990 15.08843182 46395,6917.871,95.437,540.6,538.871,0.0
53022.0,STARLINK-4216,PAYLOAD,2023-05-05 05:45:39,15.08854726,0.0001252,53.2167,70.3882,95.7984,264.3151,0.00012438,1.693e-05,0.0,0 STARLINK-4216,1 53022U 22076AN  23125.24004560  .00001693  00000-0  12438-3 0  9993,2 53022  53.2167  70.3882 0001252  95.7984 264.3151 15.08854726 46534,6917.835,95.437,540.566,538.834,0.0
53022.0,STARLINK-4216,PAYLOAD,2023-05-06 00:50:19,15.08836049,0.0001122,53.217,66.8192,103.2903,256.8215,-3.6839e-05,-8.74e-06,0.0,0 STARLINK-4216,1 53022U 22076AN  23126.03494337 -.00000874  00000-0 -36839-4 0  9990,2 53022  53.2170  66.8192 0001122 103.2903 256.8215 15.08836049 46652,6917.892,95.438,540.534,538.981,0.0
53022.0,STARLINK-4216,PAYLOAD,2023-05-06 05:36:28,15.0883841,0.0001231,53.2172,65.9275,90.0003,270.113,-8.7849e-06,-4.28e-06,0.0,0 STARLINK-4216,1 53022U 22076AN  23126.23366271 -.00000428  00000-0 -87849-5 0  9990,2 53022  53.2172  65.9275 0001231  90.0003 270.1130 15.08838410 46212,6917.885,95.438,540.602,538.899,0.0
53022.0,STARLINK-4216,PAYLOAD,2023-05-07 02:16:28,15.08849858,0.0001302,53.2172,62.0608,93.0089,267.1052,0.00014103,1.958e-05,0.0,0 STARLINK-4216,1 53022U 22076AN  23127.09476857  .00001958  00000-0  14103-3 0  9995,2 53022  53.2172  62.0608 0001302  93.0089 267.1052 15.08849858 46819,6917.85,95.437,540.616,538.815,0.0
53022.0,STARLINK-4216,PAYLOAD,2023-05-07 05:27:14,15.08857071,0.0001265,53.2173,61.4659,91.2292,268.8845,6.8683e-05,8.06e-06,0.0,0 STARLINK-4216,1 53022U 22076AN  23127.22724607  .00000806  00000-0  68683-4 0  9993,2 53022  53.2173  61.4659 0001265  91.2292 268.8845 15.08857071 46367,6917.828,95.436,540.568,538.818,0.0
53022.0,STARLINK-4216,PAYLOAD,2023-05-08 02:07:17,15.08827994,0.000111,53.2171,57.6012,90.8704,269.2415,1.3945e-05,-6.6e-07,0.0,0 STARLINK-4216,1 53022U 22076AN  23128.08839224 -.00000066  00000-0  13945-4 0  9990,2 53022  53.2171  57.6012 0001110  90.8704 269.2415 15.08827994 46962,6917.917,95.438,540.55,539.014,0.0
53022.0,STARLINK-4216,PAYLOAD,2023-05-08 22:47:16,15.0884821,0.0001032,53.2179,53.735,90.1534,269.9577,3.3911e-05,2.52e-06,0.0,0 STARLINK-4216,1 53022U 22076AN  23128.94950184  .00000252  00000-0  33911-4 0  9995,2 53022  53.2179  53.7350 0001032  90.1534 269.9577 15.08848210 46622,6917.855,95.437,540.434,539.006,0.0
53022.0,STARLINK-4216,PAYLOAD,2023-05-09 01:58:03,15.08849933,0.0001152,53.2165,53.1425,97.8137,262.2986,0.00017663,2.525e-05,0.0,0 STARLINK-4216,1 53022U 22076AN  23129.08198035  .00002525  00000-0  17663-3 0  9990,2 53022  53.2165  53.1425 0001152  97.8137 262.2986 15.08849933 46645,6917.85,95.437,540.512,538.918,0.0
53022.0,STARLINK-4216,PAYLOAD,2023-05-10 04:59:37,15.08842654,8.74e-05,53.2165,48.0846,89.9707,270.1386,0.00015384,2.162e-05,0.0,0 STARLINK-4216,1 53022U 22076AN  23130.20806733  .00002162  00000-0  15384-3 0  9992,2 53022  53.2165  48.0846 0000874  89.9707 270.1386 15.08842654 46814,6917.872,95.437,540.342,539.133,0.0
53022.0,STARLINK-4216,PAYLOAD,2023-05-11 01:39:37,15.08846996,0.0001204,53.2171,44.2217,88.7013,271.4117,3.9961e-05,3.48e-06,0.0,0 STARLINK-4216,1 53022U 22076AN  23131.06918788  .00000348  00000-0  39961-4 0  9993,2 53022  53.2171  44.2217 0001204  88.7013 271.4117 15.08846996 47412,6917.859,95.437,540.557,538.891,0.0
53022.0,STARLINK-4216,PAYLOAD,2023-05-11 23:55:02,15.08837408,0.0001059,53.2175,40.0561,84.8976,275.2137,5.0997e-05,5.24e-06,0.0,0 STARLINK-4216,1 53022U 22076AN  23131.99655325  .00000524  00000-0  50997-4 0  9998,2 53022  53.2175  40.0561 0001059  84.8976 275.2137 15.08837408 47552,6917.888,95.438,540.486,539.021,0.0
53022.0,STARLINK-4216,PAYLOAD,2023-05-12 01:30:25,15.08838978,0.0001075,53.2177,39.7608,91.2907,268.8209,6.9996e-05,8.26e-06,0.0,0 STARLINK-4216,1 53022U 22076AN  23132.06279249  .00000826  00000-0  69996-4 0  9998,2 53022  53.2177  39.7608 0001075  91.2907 268.8209 15.08838978 47095,6917.884,95.438,540.492,539.005,0.0
53022.0,STARLINK-4216,PAYLOAD,2023-05-13 02:56:35,15.08842884,0.0001196,53.2179,35.0038,99.8087,260.304,0.00012893,1.765e-05,0.0,0 STARLINK-4216,1 53022U 22076AN  23133.12263400  .00001765  00000-0  12893-3 0  9994,2 53022  53.2179  35.0038 0001196  99.8087 260.3040 15.08842884 47721,6917.872,95.437,540.564,538.909,0.0
53022.0,STARLINK-4216,PAYLOAD,2023-05-13 20:25:51,15.08813322,0.0001352,53.2182,31.7333,95.3218,264.7928,0.00066071,0.00010235,0.0,0 STARLINK-4216,1 53022U 22076AN  23133.85128916  .00010235  00000-0  66071-3 0  9995,2 53022  53.2182  31.7333 0001352  95.3218 264.7928 15.08813322 47365,6917.962,95.439,540.762,538.892,0.0
53022.0,STARLINK-4216,PAYLOAD,2023-05-14 02:47:22,15.08846017,0.0001227,53.219,30.5427,102.6688,257.4441,0.0001301,1.784e-05,0.0,0 STARLINK-4216,1 53022U 22076AN  23134.11623172  .00001784  00000-0  13010-3 0  9993,2 53022  53.2190  30.5427 0001227 102.6688 257.4441 15.08846017 47400,6917.862,95.437,540.576,538.878,0.0
53022.0,STARLINK-4216,PAYLOAD,2023-05-14 20:16:37,15.08843133,0.0001264,53.219,27.2745,95.1462,264.9674,7.2998e-05,8.74e-06,0.0,0 STARLINK-4216,1 53022U 22076AN  23134.84487442  .00000874  00000-0  72998-4 0  9991,2 53022  53.2190  27.2745 0001264  95.1462 264.9674 15.08843133 47512,6917.871,95.437,540.61,538.861,0.0
